[{"OBJECT_NAME":"HULIANWANG DIGUI-33","OBJECT_ID":"2025-121D","EPOCH":"2026-03-04T14:04:42.262464","MEAN_MOTION":13.2442531,"ECCENTRICITY":0.00020846,"INCLINATION":86.4965,"RA_OF_ASC_NODE":48.8825,"ARG_OF_PERICENTER":78.3374,"MEAN_ANOMALY":281.7994,"EPHEMERIS_TYPE":0,"CLASSIFICATION_TYPE":"U","NORAD_CAT_ID":64286,"ELEMENT_SET_NO":999,"REV_AT_EPOCH":3631,"BSTAR":6.7890794e-5,"MEAN_MOTION_DOT":4.4e-7,"MEAN_MOTION_DDOT":0},{"OBJECT_NAME":"HULIANWANG DIGUI-34","OBJECT_ID":"2025-121E","EPOCH":"2026-03-04T13:53:53.900448","MEAN_MOTION":13.24424142,"ECCENTRICITY":0.00022305,"INCLINATION":86.4943,"RA_OF_ASC_NODE":48.817,"ARG_OF_PERICENTER":74.4093,"MEAN_ANOMALY":285.7287,"EPHEMERIS_TYPE":0,"CLASSIFICATION_TYPE":"U","NORAD_CAT_ID":64287,"ELEMENT_SET_NO":999,"REV_AT_EPOCH":3631,"BSTAR":3.654002e-6,"MEAN_MOTION_DOT":1.6e-7,"MEAN_MOTION_DDOT":0},{"OBJECT_NAME":"HULIANWANG DIGUI-35","OBJECT_ID":"2025-159A","EPOCH":"2026-03-04T14:54:23.302656","MEAN_MOTION":13.24417085,"ECCENTRICITY":0.00012902,"INCLINATION":86.4986,"RA_OF_ASC_NODE":317.7764,"ARG_OF_PERICENTER":71.454,"MEAN_ANOMALY":288.6734,"EPHEMERIS_TYPE":0,"CLASSIFICATION_TYPE":"U","NORAD_CAT_ID":64956,"ELEMENT_SET_NO":999,"REV_AT_EPOCH":2928,"BSTAR":9.0918716e-5,"MEAN_MOTION_DOT":5.4e-7,"MEAN_MOTION_DDOT":0},{"OBJECT_NAME":"HULIANWANG DIGUI-36","OBJECT_ID":"2025-159B","EPOCH":"2026-03-04T14:43:14.049120","MEAN_MOTION":13.24419727,"ECCENTRICITY":0.00013688,"INCLINATION":86.5006,"RA_OF_ASC_NODE":317.8167,"ARG_OF_PERICENTER":70.6365,"MEAN_ANOMALY":289.4917,"EPHEMERIS_TYPE":0,"CLASSIFICATION_TYPE":"U","NORAD_CAT_ID":64957,"ELEMENT_SET_NO":999,"REV_AT_EPOCH":2928,"BSTAR":9.3346614e-5,"MEAN_MOTION_DOT":5.5e-7,"MEAN_MOTION_DDOT":0},{"OBJECT_NAME":"HULIANWANG DIGUI-37","OBJECT_ID":"2025-159C","EPOCH":"2026-03-04T14:32:22.407360","MEAN_MOTION":13.24419338,"ECCENTRICITY":0.00014544,"INCLINATION":86.4947,"RA_OF_ASC_NODE":317.6816,"ARG_OF_PERICENTER":68.3242,"MEAN_ANOMALY":291.8047,"EPHEMERIS_TYPE":0,"CLASSIFICATION_TYPE":"U","NORAD_CAT_ID":64958,"ELEMENT_SET_NO":999,"REV_AT_EPOCH":2928,"BSTAR":9.4648769e-5,"MEAN_MOTION_DOT":5.5e-7,"MEAN_MOTION_DDOT":0},{"OBJECT_NAME":"HULIANWANG DIGUI-38","OBJECT_ID":"2025-159D","EPOCH":"2026-03-04T14:21:31.385088","MEAN_MOTION":13.24419516,"ECCENTRICITY":0.00014311,"INCLINATION":86.5006,"RA_OF_ASC_NODE":317.8095,"ARG_OF_PERICENTER":70.8198,"MEAN_ANOMALY":289.3091,"EPHEMERIS_TYPE":0,"CLASSIFICATION_TYPE":"U","NORAD_CAT_ID":64959,"ELEMENT_SET_NO":999,"REV_AT_EPOCH":2928,"BSTAR":0.00010785012,"MEAN_MOTION_DOT":6.1e-7,"MEAN_MOTION_DDOT":0},{"OBJECT_NAME":"HULIANWANG DIGUI-39","OBJECT_ID":"2025-159E","EPOCH":"2026-03-04T14:10:37.579872","MEAN_MOTION":13.24419676,"ECCENTRICITY":0.00014376,"INCLINATION":86.4982,"RA_OF_ASC_NODE":317.752,"ARG_OF_PERICENTER":71.8158,"MEAN_ANOMALY":288.3133,"EPHEMERIS_TYPE":0,"CLASSIFICATION_TYPE":"U","NORAD_CAT_ID":64960,"ELEMENT_SET_NO":999,"REV_AT_EPOCH":2928,"BSTAR":0.00013895328,"MEAN_MOTION_DOT":7.4e-7,"MEAN_MOTION_DDOT":0},{"OBJECT_NAME":"HULIANWANG DIGUI-40","OBJECT_ID":"2025-162A","EPOCH":"2026-03-04T14:12:08.912448","MEAN_MOTION":13.29332129,"ECCENTRICITY":0.00010199,"INCLINATION":49.999,"RA_OF_ASC_NODE":281.1143,"ARG_OF_PERICENTER":71.4966,"MEAN_ANOMALY":288.6017,"EPHEMERIS_TYPE":0,"CLASSIFICATION_TYPE":"U","NORAD_CAT_ID":65043,"ELEMENT_SET_NO":999,"REV_AT_EPOCH":2943,"BSTAR":0.0001069273,"MEAN_MOTION_DOT":-7.4e-7,"MEAN_MOTION_DDOT":0},{"OBJECT_NAME":"HULIANWANG DIGUI-41","OBJECT_ID":"2025-162B","EPOCH":"2026-03-04T14:00:07.288416","MEAN_MOTION":13.29332538,"ECCENTRICITY":0.00010642,"INCLINATION":50,"RA_OF_ASC_NODE":281.0882,"ARG_OF_PERICENTER":71.2494,"MEAN_ANOMALY":288.8494,"EPHEMERIS_TYPE":0,"CLASSIFICATION_TYPE":"U","NORAD_CAT_ID":65044,"ELEMENT_SET_NO":999,"REV_AT_EPOCH":2944,"BSTAR":0.00012956956,"MEAN_MOTION_DOT":-6.4e-7,"MEAN_MOTION_DDOT":0},{"OBJECT_NAME":"HULIANWANG DIGUI-42","OBJECT_ID":"2025-162C","EPOCH":"2026-03-04T15:36:18.594144","MEAN_MOTION":13.29331948,"ECCENTRICITY":9.957e-5,"INCLINATION":49.9965,"RA_OF_ASC_NODE":280.7133,"ARG_OF_PERICENTER":73.163,"MEAN_ANOMALY":286.9351,"EPHEMERIS_TYPE":0,"CLASSIFICATION_TYPE":"U","NORAD_CAT_ID":65045,"ELEMENT_SET_NO":999,"REV_AT_EPOCH":2945,"BSTAR":0.00012723058,"MEAN_MOTION_DOT":-6.5e-7,"MEAN_MOTION_DDOT":0},{"OBJECT_NAME":"HULIANWANG DIGUI-43","OBJECT_ID":"2025-162D","EPOCH":"2026-03-04T15:24:15.091776","MEAN_MOTION":13.29332999,"ECCENTRICITY":9.944e-5,"INCLINATION":49.9982,"RA_OF_ASC_NODE":280.7015,"ARG_OF_PERICENTER":71.9284,"MEAN_ANOMALY":288.1696,"EPHEMERIS_TYPE":0,"CLASSIFICATION_TYPE":"U","NORAD_CAT_ID":65046,"ELEMENT_SET_NO":999,"REV_AT_EPOCH":2945,"BSTAR":0.00013006232,"MEAN_MOTION_DOT":-6.4e-7,"MEAN_MOTION_DDOT":0},{"OBJECT_NAME":"HULIANWANG DIGUI-44","OBJECT_ID":"2025-162E","EPOCH":"2026-03-04T15:11:48.467040","MEAN_MOTION":13.29340572,"ECCENTRICITY":7.773e-5,"INCLINATION":50.0009,"RA_OF_ASC_NODE":280.7043,"ARG_OF_PERICENTER":351.1249,"MEAN_ANOMALY":8.9609,"EPHEMERIS_TYPE":0,"CLASSIFICATION_TYPE":"U","NORAD_CAT_ID":65047,"ELEMENT_SET_NO":999,"REV_AT_EPOCH":2946,"BSTAR":0.00011834446,"MEAN_MOTION_DOT":-6.9e-7,"MEAN_MOTION_DDOT":0},{"OBJECT_NAME":"HULIANWANG DIGUI-45","OBJECT_ID":"2025-162F","EPOCH":"2026-03-04T15:00:14.580000","MEAN_MOTION":13.29332868,"ECCENTRICITY":0.00010512,"INCLINATION":50.0039,"RA_OF_ASC_NODE":280.7161,"ARG_OF_PERICENTER":71.7115,"MEAN_ANOMALY":288.3872,"EPHEMERIS_TYPE":0,"CLASSIFICATION_TYPE":"U","NORAD_CAT_ID":65048,"ELEMENT_SET_NO":999,"REV_AT_EPOCH":2945,"BSTAR":0.00011206455,"MEAN_MOTION_DOT":-7.2e-7,"MEAN_MOTION_DDOT":0},{"OBJECT_NAME":"HULIANWANG DIGUI-46","OBJECT_ID":"2025-162G","EPOCH":"2026-03-04T14:48:12.653568","MEAN_MOTION":13.29332807,"ECCENTRICITY":0.00010493,"INCLINATION":50.0057,"RA_OF_ASC_NODE":280.7052,"ARG_OF_PERICENTER":74.072,"MEAN_ANOMALY":286.0268,"EPHEMERIS_TYPE":0,"CLASSIFICATION_TYPE":"U","NORAD_CAT_ID":65049,"ELEMENT_SET_NO":999,"REV_AT_EPOCH":2945,"BSTAR":0.00011419915,"MEAN_MOTION_DOT":-7.1e-7,"MEAN_MOTION_DDOT":0},{"OBJECT_NAME":"HULIANWANG DIGUI-47","OBJECT_ID":"2025-162H","EPOCH":"2026-03-04T14:36:10.660608","MEAN_MOTION":13.29332632,"ECCENTRICITY":0.00010279,"INCLINATION":50.0021,"RA_OF_ASC_NODE":280.5999,"ARG_OF_PERICENTER":74.9668,"MEAN_ANOMALY":285.1317,"EPHEMERIS_TYPE":0,"CLASSIFICATION_TYPE":"U","NORAD_CAT_ID":65050,"ELEMENT_SET_NO":999,"REV_AT_EPOCH":2945,"BSTAR":0.00010426385,"MEAN_MOTION_DOT":-7.6e-7,"MEAN_MOTION_DDOT":0},{"OBJECT_NAME":"HULIANWANG DIGUI-48","OBJECT_ID":"2025-162J","EPOCH":"2026-03-04T14:24:10.786176","MEAN_MOTION":13.29332161,"ECCENTRICITY":0.00010172,"INCLINATION":50.0031,"RA_OF_ASC_NODE":280.5736,"ARG_OF_PERICENTER":73.2498,"MEAN_ANOMALY":286.8486,"EPHEMERIS_TYPE":0,"CLASSIFICATION_TYPE":"U","NORAD_CAT_ID":65051,"ELEMENT_SET_NO":999,"REV_AT_EPOCH":2945,"BSTAR":0.00012377796,"MEAN_MOTION_DOT":-6.7e-7,"MEAN_MOTION_DDOT":0}]
