HULIANWANG DIGUI-33     
1 64286U 25121D   26063.58660026  .00000044  00000+0  67891-4 0  9999
2 64286  86.4965  48.8825 0002084  78.3374 281.7994 13.24425310 36315
HULIANWANG DIGUI-34     
1 64287U 25121E   26063.57909607  .00000016  00000+0  36540-5 0  9997
2 64287  86.4943  48.8170 0002230  74.4093 285.7287 13.24424142 36314
HULIANWANG DIGUI-35     
1 64956U 25159A   26063.62110304  .00000054  00000+0  90919-4 0  9996
2 64956  86.4986 317.7764 0001290  71.4540 288.6734 13.24417085 29285
HULIANWANG DIGUI-36     
1 64957U 25159B   26063.61335705  .00000055  00000+0  93347-4 0  9999
2 64957  86.5006 317.8167 0001368  70.6365 289.4917 13.24419727 29287
HULIANWANG DIGUI-37     
1 64958U 25159C   26063.60581490  .00000055  00000+0  94649-4 0  9999
2 64958  86.4947 317.6816 0001454  68.3242 291.8047 13.24419338 29283
HULIANWANG DIGUI-38     
1 64959U 25159D   26063.59827992  .00000061  00000+0  10785-3 0  9993
2 64959  86.5006 317.8095 0001431  70.8198 289.3091 13.24419516 29284
HULIANWANG DIGUI-39     
1 64960U 25159E   26063.59071273  .00000074  00000+0  13895-3 0  9997
2 64960  86.4982 317.7520 0001437  71.8158 288.3133 13.24419676 29286
HULIANWANG DIGUI-40     
1 65043U 25162A   26063.59176982 -.00000074  00000+0  10693-3 0  9991
2 65043  49.9990 281.1143 0001019  71.4966 288.6017 13.29332129 29439
HULIANWANG DIGUI-41     
1 65044U 25162B   26063.58341769 -.00000064  00000+0  12957-3 0  9992
2 65044  50.0000 281.0882 0001064  71.2494 288.8494 13.29332538 29444
HULIANWANG DIGUI-42     
1 65045U 25162C   26063.65021521 -.00000065  00000+0  12723-3 0  9994
2 65045  49.9965 280.7133 0000995  73.1630 286.9351 13.29331948 29458
HULIANWANG DIGUI-43     
1 65046U 25162D   26063.64184134 -.00000064  00000+0  13006-3 0  9998
2 65046  49.9982 280.7015 0000994  71.9284 288.1696 13.29332999 29450
HULIANWANG DIGUI-44     
1 65047U 25162E   26063.63319985 -.00000069  00000+0  11834-3 0  9994
2 65047  50.0009 280.7043 0000777 351.1249   8.9609 13.29340572 29467
HULIANWANG DIGUI-45     
1 65048U 25162F   26063.62516875 -.00000072  00000+0  11206-3 0  9998
2 65048  50.0039 280.7161 0001051  71.7115 288.3872 13.29332868 29459
HULIANWANG DIGUI-46     
1 65049U 25162G   26063.61681312 -.00000071  00000+0  11420-3 0  9994
2 65049  50.0057 280.7052 0001049  74.0720 286.0268 13.29332807 29451
HULIANWANG DIGUI-47     
1 65050U 25162H   26063.60845672 -.00000076  00000+0  10426-3 0  9996
2 65050  50.0021 280.5999 0001027  74.9668 285.1317 13.29332632 29459
HULIANWANG DIGUI-48     
1 65051U 25162J   26063.60012484 -.00000067  00000+0  12378-3 0  9992
2 65051  50.0031 280.5736 0001017  73.2498 286.8486 13.29332161 29454
